H1 CPF 01  gfz 2022 07 18 12  6992 tandemx   
H2 1003001  6202 36605    2022 07 18 12 59 42 2022 07 23 00 00 42   120 1 1  0 0 0
H9
10 0 59779  43182.000000  0    -717371.953   4449867.162  -5217126.916
10 0 59779  43302.000000  0    -595828.364   5110478.337  -4588803.098
10 0 59779  43422.000000  0    -453160.277   5679923.988  -3880130.516
10 0 59779  43542.000000  0    -293526.044   6147863.690  -3103445.364
10 0 59779  43662.000000  0    -121550.397   6505784.054  -2272305.239
10 0 59779  43782.000000  0      57788.858   6747166.474  -1401255.780
10 0 59779  43902.000000  0     239283.889   6867618.349   -505575.426
10 0 59779  44022.000000  0     417627.194   6864963.551    398996.786
10 0 59779  44142.000000  0     587545.885   6739289.337   1296545.092
10 0 59779  44262.000000  0     743935.726   6492946.877   2171266.102
10 0 59779  44382.000000  0     881990.387   6130505.537   3007755.314
10 0 59779  44502.000000  0     997323.948   5658664.752   3791285.523
10 0 59779  44622.000000  0    1086085.287   5086123.275   4508071.269
10 0 59779  44742.000000  0    1145059.364   4423410.253   5145517.892
10 0 59779  44862.000000  0    1171751.157   3682677.329   5692440.943
10 0 59779  44982.000000  0    1164455.541   2877467.948   6139257.072
10 0 59779  45102.000000  0    1122307.456   2022462.842   6478147.525
10 0 59779  45222.000000  0    1045313.051   1133207.072   6703189.330
10 0 59779  45342.000000  0     934361.388    225824.080   6810452.385
10 0 59779  45462.000000  0     791216.401   -683275.808   6798063.291
10 0 59779  45582.000000  0     618488.881  -1577691.629   6666237.644
10 0 59779  45702.000000  0     419588.808  -2441327.637   6417276.686
10 0 59779  45822.000000  0     198658.729  -3258683.913   6055530.053
10 0 59779  45942.000000  0     -39510.143  -4015136.247   5587321.732
10 0 59779  46062.000000  0    -289577.253  -4697198.759   5020844.775
10 0 59779  46182.000000  0    -545766.227  -5292769.574   4366026.478
10 0 59779  46302.000000  0    -801992.207  -5791356.225   3634360.467
10 0 59779  46422.000000  0   -1051999.545  -6184270.397   2838706.312
10 0 59779  46542.000000  0   -1289505.903  -6464788.565   1993063.294
10 0 59779  46662.000000  0   -1508349.630  -6628276.614   1112321.967
10 0 59779  46782.000000  0   -1702638.832  -6672273.325    211995.028
10 0 59779  46902.000000  0   -1866894.554  -6596528.622   -692064.794
10 0 59779  47022.000000  0   -1996186.008  -6402997.477  -1583952.712
10 0 59779  47142.000000  0   -2086254.843  -6095789.899  -2447999.750
10 0 59779  47262.000000  0   -2133625.487  -5681078.242  -3269054.898
10 0 59779  47382.000000  0   -2135698.398  -5166963.582  -4032755.203
10 0 59779  47502.000000  0   -2090823.794  -4563305.687  -4725776.903
10 0 59779  47622.000000  0   -1998354.811  -3881522.908  -5336063.239
10 0 59779  47742.000000  0   -1858679.581  -3134367.385  -5853026.604
10 0 59779  47862.000000  0   -1673231.635  -2335680.084  -6267723.078
10 0 59779  47982.000000  0   -1444478.195  -1500130.135  -6572996.174
10 0 59779  48102.000000  0   -1175887.755   -642945.215  -6763588.436
10 0 59779  48222.000000  0    -871878.102    220362.662  -6836222.028
10 0 59779  48342.000000  0    -537744.187   1074271.601  -6789648.359
10 0 59779  48462.000000  0    -179567.636   1903521.534  -6624666.942
10 0 59779  48582.000000  0     195889.896   2693379.646  -6344113.625
10 0 59779  48702.000000  0     581310.662   3429897.934  -5952819.168
10 0 59779  48822.000000  0     968959.839   4100158.050  -5457534.037
10 0 59779  48942.000000  0    1350835.850   4692498.411  -4866822.697
10 0 59779  49062.000000  0    1718831.306   5196722.708  -4190927.583
10 0 59779  49182.000000  0    2064901.433   5604283.790  -3441600.995
10 0 59779  49302.000000  0    2381235.963   5908438.314  -2631908.820
10 0 59779  49422.000000  0    2660431.606   6104370.023  -1776007.856
10 0 59779  49542.000000  0    2895660.802   6189277.147   -888898.907
10 0 59779  49662.000000  0    3080831.770   6162420.007     13839.913
10 0 59779  49782.000000  0    3210735.495   6025126.693    916332.966
10 0 59779  49902.000000  0    3281176.482   5780757.688   1802693.399
10 0 59779  50022.000000  0    3289083.579   5434630.386   2657311.175
10 0 59779  50142.000000  0    3232597.676   4993903.963   3465136.460
10 0 59779  50262.000000  0    3111135.194   4467427.317   4211951.251
10 0 59779  50382.000000  0    2925424.534   3865556.068   4884624.917
10 0 59779  50502.000000  0    2677511.855   3199939.564   5471347.097
10 0 59779  50622.000000  0    2370741.556   2483287.690   5961830.616
10 0 59779  50742.000000  0    2009712.080   1729123.391   6347487.431
10 0 59779  50862.000000  0    1600205.145    951522.505   6621574.350
10 0 59779  50982.000000  0    1149090.544    164848.415   6779303.629
10 0 59779  51102.000000  0     664209.750   -616512.073   6817921.287
10 0 59779  51222.000000  0     154239.328  -1378411.774   6736753.782
10 0 59779  51342.000000  0    -371464.603  -2107199.350   6537218.758
10 0 59779  51462.000000  0    -903038.002  -2789964.099   6222801.180
10 0 59779  51582.000000  0   -1430292.318  -3414765.104   5798994.444
10 0 59779  51702.000000  0   -1942907.073  -3970841.325   5273210.414
10 0 59779  51822.000000  0   -2430632.078  -4448801.604   4654658.145
10 0 59779  51942.000000  0   -2883494.968  -4840790.550   3954188.960
10 0 59779  52062.000000  0   -3292007.823  -5140625.206   3184108.883
10 0 59779  52182.000000  0   -3647366.929  -5343898.582   2357962.234
10 0 59779  52302.000000  0   -3941642.406  -5448048.777   1490291.820
10 0 59779  52422.000000  0   -4167954.104  -5452391.715    596378.285
10 0 59779  52542.000000  0   -4320628.326  -5358115.690   -308035.863
10 0 59779  52662.000000  0   -4395331.626  -5168238.377  -1207032.074
10 0 59779  52782.000000  0   -4389177.369  -4887526.127  -2084805.702
10 0 59779  52902.000000  0   -4300802.155  -4522377.438  -2925952.086
10 0 59779  53022.000000  0   -4130410.653  -4080674.895  -3715741.904
10 0 59779  53142.000000  0   -3879788.394  -3571610.612  -4440380.233
10 0 59779  53262.000000  0   -3552283.393  -3005489.936  -5087245.108
10 0 59779  53382.000000  0   -3152757.132  -2393517.677  -5645101.501
10 0 59779  53502.000000  0   -2687507.004  -1747572.939  -6104287.241
10 0 59779  53622.000000  0   -2164162.321  -1079977.028  -6456870.285
10 0 59779  53742.000000  0   -1591554.987   -403258.696  -6696774.302
10 0 59779  53862.000000  0    -979569.259    270077.843  -6819871.262
10 0 59779  53982.000000  0    -338973.789    927778.033  -6824044.195
10 0 59779  54102.000000  0     318763.817   1558054.332  -6709219.624
10 0 59779  54222.000000  0     981675.980   2149791.485  -6477369.741
10 0 59779  54342.000000  0    1637508.680   2692739.366  -6132483.848
10 0 59779  54462.000000  0    2273943.361   3177689.161  -5680506.680
10 0 59779  54582.000000  0    2878825.036   3596629.902  -5129245.313
10 0 59779  54702.000000  0    3440392.427   3942883.480  -4488246.102
10 0 59779  54822.000000  0    3947507.902   4211216.808  -3768640.807
10 0 59779  54942.000000  0    4389881.941   4397927.164  -2982962.415
10 0 59779  55062.000000  0    4758286.638   4500898.194  -2144932.181
10 0 59779  55182.000000  0    5044752.741   4519624.816  -1269222.820
10 0 59779  55302.000000  0    5242746.438   4455206.170   -371199.874
10 0 59779  55422.000000  0    5347318.409   4310305.970    533352.684
10 0 59779  55542.000000  0    5355223.358   4089081.905   1428516.180
10 0 59779  55662.000000  0    5265007.478   3797084.000   2298525.748
10 0 59779  55782.000000  0    5077059.022   3441124.216   3128057.560
10 0 59779  55902.000000  0    4793619.743   3029121.541   3902506.771
10 0 59779  56022.000000  0    4418758.853   2569926.055   4608250.051
10 0 59779  56142.000000  0    3958311.592   2073127.227   5232886.332
10 0 59779  56262.000000  0    3419781.701   1548852.752   5765455.909
10 0 59779  56382.000000  0    2812210.898   1007559.341   6196628.914
10 0 59779  56502.000000  0    2146020.760    459822.133   6518861.641
10 0 59779  56622.000000  0    1432830.374    -83870.901   6726521.769
10 0 59779  56742.000000  0     685251.406   -613318.773   6815983.275
10 0 59779  56862.000000  0     -83336.887  -1118799.053   6785685.779
10 0 59779  56982.000000  0    -859027.270  -1591245.816   6636159.296
10 0 59779  57102.000000  0   -1627635.620  -2022412.356   6370014.422
10 0 59779  57222.000000  0   -2374958.204  -2405014.577   5991898.481
10 0 59779  57342.000000  0   -3087032.806  -2732854.693   5508421.778
10 0 59779  57462.000000  0   -3750403.719  -3000925.181   4928049.856
10 0 59779  57582.000000  0   -4352381.057  -3205487.680   4260959.172
10 0 59779  57702.000000  0   -4881288.606  -3344125.788   3518862.306
10 0 59779  57822.000000  0   -5326696.345  -3415770.927   2714805.071
10 0 59779  57942.000000  0   -5679633.625  -3420701.555   1862937.843
10 0 59779  58062.000000  0   -5932776.679  -3360514.736    978262.423
10 0 59779  58182.000000  0   -6080604.303  -3238069.100     76361.083
10 0 59779  58302.000000  0   -6119518.725  -3057401.848   -826885.749
10 0 59779  58422.000000  0   -6047928.214  -2823621.577  -1715589.109
10 0 59779  58542.000000  0   -5866287.061  -2542778.704  -2574140.171
10 0 59779  58662.000000  0   -5577094.512  -2221718.682  -3387489.910
10 0 59779  58782.000000  0   -5184853.458  -1867921.702  -4141415.943
10 0 59779  58902.000000  0   -4695990.221  -1489332.864  -4822770.299
10 0 59779  59022.000000  0   -4118738.548  -1094187.255  -5419704.807
10 0 59779  59142.000000  0   -3462989.928   -690833.532  -5921869.608
10 0 59779  59262.000000  0   -2740115.444   -287560.691  -6320581.847
10 0 59779  59382.000000  0   -1962763.421    107568.481  -6608964.063
10 0 59779  59502.000000  0   -1144635.871    486873.687  -6782051.246
10 0 59779  59622.000000  0    -300249.543    843201.341  -6836866.526
99
